{
  "type": "FeatureCollection",
  "features": [
    {
      "type": "Feature",
      "properties": {
        "norad_id": 34571,
        "name": "COSMOS 2251 DEB",
        "group": "cosmos-2251-debris",
        "lat": -8.396623414969202,
        "lon": -7.579659902610809,
        "alt_km": 687.8951510078668,
        "timestamp": "2025-12-19T08:58:49.731685+00:00",
        "meta_object_name": "COSMOS 2251 DEB",
        "meta_object_id": "1993-036VH",
        "meta_epoch": "2025-12-18T22:10:04.528128",
        "meta_mean_motion": 14.48905766,
        "meta_eccentricity": 0.0065409,
        "meta_inclination": 74.0384,
        "meta_ra_of_asc_node": 170.8432,
        "meta_arg_of_pericenter": 204.4185,
        "meta_mean_anomaly": 155.3874,
        "meta_ephemeris_type": 0,
        "meta_classification_type": "U",
        "meta_norad_cat_id": 34571,
        "meta_element_set_no": 999,
        "meta_rev_at_epoch": 87383,
        "meta_bstar": 0.0018317465,
        "meta_mean_motion_dot": 7.102e-05,
        "meta_mean_motion_ddot": 0,
        "tle_line1": "1 34571U 93036VH  25352.92366352  .00007102  00000+0  18317-2 0  9995",
        "tle_line2": "2 34571  74.0384 170.8432 0065409 204.4185 155.3874 14.48905766873833"
      },
      "geometry": {
        "type": "Point",
        "coordinates": [
          -7.579659902610809,
          -8.396623414969202
        ]
      }
    },
    {
      "type": "Feature",
      "properties": {
        "norad_id": 34572,
        "name": "COSMOS 2251 DEB",
        "group": "cosmos-2251-debris",
        "lat": 71.03959455022644,
        "lon": 159.6016260878519,
        "alt_km": 722.1931254537194,
        "timestamp": "2025-12-19T08:58:49.731695+00:00",
        "meta_object_name": "COSMOS 2251 DEB",
        "meta_object_id": "1993-036VJ",
        "meta_epoch": "2025-12-17T08:51:26.669952",
        "meta_mean_motion": 14.50108121,
        "meta_eccentricity": 0.00622699,
        "meta_inclination": 74.0105,
        "meta_ra_of_asc_node": 106.7968,
        "meta_arg_of_pericenter": 179.7942,
        "meta_mean_anomaly": 237.2131,
        "meta_ephemeris_type": 0,
        "meta_classification_type": "U",
        "meta_norad_cat_id": 34572,
        "meta_element_set_no": 999,
        "meta_rev_at_epoch": 87445,
        "meta_bstar": 0.0020762256,
        "meta_mean_motion_dot": 8.243e-05,
        "meta_mean_motion_ddot": 0,
        "tle_line1": "1 34572U 93036VJ  25351.36905868  .00008243  00000+0  20762-2 0  9998",
        "tle_line2": "2 34572  74.0105 106.7968 0062269 179.7942 237.2131 14.50108121874451"
      },
      "geometry": {
        "type": "Point",
        "coordinates": [
          159.6016260878519,
          71.03959455022644
        ]
      }
    },
    {
      "type": "Feature",
      "properties": {
        "norad_id": 34574,
        "name": "COSMOS 2251 DEB",
        "group": "cosmos-2251-debris",
        "lat": 71.82794015395227,
        "lon": 149.80098380315886,
        "alt_km": 620.868628862585,
        "timestamp": "2025-12-19T08:58:49.731706+00:00",
        "meta_object_name": "COSMOS 2251 DEB",
        "meta_object_id": "1993-036VL",
        "meta_epoch": "2025-12-18T13:38:37.203360",
        "meta_mean_motion": 14.70665751,
        "meta_eccentricity": 0.00670446,
        "meta_inclination": 74.0689,
        "meta_ra_of_asc_node": 31.8422,
        "meta_arg_of_pericenter": 51.0231,
        "meta_mean_anomaly": 103.2842,
        "meta_ephemeris_type": 0,
        "meta_classification_type": "U",
        "meta_norad_cat_id": 34574,
        "meta_element_set_no": 999,
        "meta_rev_at_epoch": 88864,
        "meta_bstar": 0.00066129788,
        "meta_mean_motion_dot": 4.139e-05,
        "meta_mean_motion_ddot": 0,
        "tle_line1": "1 34574U 93036VL  25352.56848615  .00004139  00000+0  66130-3 0  9999",
        "tle_line2": "2 34574  74.0689  31.8422 0067044  51.0231 103.2842 14.70665751888648"
      },
      "geometry": {
        "type": "Point",
        "coordinates": [
          149.80098380315886,
          71.82794015395227
        ]
      }
    },
    {
      "type": "Feature",
      "properties": {
        "norad_id": 34576,
        "name": "COSMOS 2251 DEB",
        "group": "cosmos-2251-debris",
        "lat": 60.87573270036179,
        "lon": 156.54862686906534,
        "alt_km": 707.1357983737007,
        "timestamp": "2025-12-19T08:58:49.731716+00:00",
        "meta_object_name": "COSMOS 2251 DEB",
        "meta_object_id": "1993-036VN",
        "meta_epoch": "2025-12-18T20:11:07.329984",
        "meta_mean_motion": 14.55466,
        "meta_eccentricity": 0.00082163,
        "meta_inclination": 74.034,
        "meta_ra_of_asc_node": 126.6375,
        "meta_arg_of_pericenter": 263.7064,
        "meta_mean_anomaly": 249.3441,
        "meta_ephemeris_type": 0,
        "meta_classification_type": "U",
        "meta_norad_cat_id": 34576,
        "meta_element_set_no": 999,
        "meta_rev_at_epoch": 88555,
        "meta_bstar": 0.00064112979,
        "meta_mean_motion_dot": 2.762e-05,
        "meta_mean_motion_ddot": 0,
        "tle_line1": "1 34576U 93036VN  25352.84105706  .00002762  00000+0  64113-3 0  9998",
        "tle_line2": "2 34576  74.0340 126.6375 0008216 263.7064 249.3441 14.55466000885559"
      },
      "geometry": {
        "type": "Point",
        "coordinates": [
          156.54862686906534,
          60.87573270036179
        ]
      }
    },
    {
      "type": "Feature",
      "properties": {
        "norad_id": 34579,
        "name": "COSMOS 2251 DEB",
        "group": "cosmos-2251-debris",
        "lat": 39.930013611504805,
        "lon": -134.61010558638768,
        "alt_km": 748.1000412539006,
        "timestamp": "2025-12-19T08:58:49.731727+00:00",
        "meta_object_name": "COSMOS 2251 DEB",
        "meta_object_id": "1993-036VR",
        "meta_epoch": "2025-12-18T18:23:07.984896",
        "meta_mean_motion": 14.45324419,
        "meta_eccentricity": 0.00275351,
        "meta_inclination": 74.0518,
        "meta_ra_of_asc_node": 212.6736,
        "meta_arg_of_pericenter": 280.4047,
        "meta_mean_anomaly": 198.4131,
        "meta_ephemeris_type": 0,
        "meta_classification_type": "U",
        "meta_norad_cat_id": 34579,
        "meta_element_set_no": 999,
        "meta_rev_at_epoch": 88261,
        "meta_bstar": 0.0002914303,
        "meta_mean_motion_dot": 1.001e-05,
        "meta_mean_motion_ddot": 0,
        "tle_line1": "1 34579U 93036VR  25352.76606464  .00001001  00000+0  29143-3 0  9998",
        "tle_line2": "2 34579  74.0518 212.6736 0027535 280.4047 198.4131 14.45324419882618"
      },
      "geometry": {
        "type": "Point",
        "coordinates": [
          -134.61010558638768,
          39.930013611504805
        ]
      }
    },
    {
      "type": "Feature",
      "properties": {
        "norad_id": 34582,
        "name": "COSMOS 2251 DEB",
        "group": "cosmos-2251-debris",
        "lat": -62.886419611722935,
        "lon": -133.99226405032704,
        "alt_km": 746.0679795363849,
        "timestamp": "2025-12-19T08:58:49.731737+00:00",
        "meta_object_name": "COSMOS 2251 DEB",
        "meta_object_id": "1993-036VU",
        "meta_epoch": "2025-12-18T19:59:03.724800",
        "meta_mean_motion": 14.43355881,
        "meta_eccentricity": 0.00481967,
        "meta_inclination": 74.0201,
        "meta_ra_of_asc_node": 261.0456,
        "meta_arg_of_pericenter": 9.8451,
        "meta_mean_anomaly": 350.3638,
        "meta_ephemeris_type": 0,
        "meta_classification_type": "U",
        "meta_norad_cat_id": 34582,
        "meta_element_set_no": 999,
        "meta_rev_at_epoch": 88035,
        "meta_bstar": 0.00059216903,
        "meta_mean_motion_dot": 1.999e-05,
        "meta_mean_motion_ddot": 0,
        "tle_line1": "1 34582U 93036VU  25352.83268200  .00001999  00000+0  59217-3 0  9993",
        "tle_line2": "2 34582  74.0201 261.0456 0048196   9.8451 350.3638 14.43355881880351"
      },
      "geometry": {
        "type": "Point",
        "coordinates": [
          -133.99226405032704,
          -62.886419611722935
        ]
      }
    },
    {
      "type": "Feature",
      "properties": {
        "norad_id": 34588,
        "name": "COSMOS 2251 DEB",
        "group": "cosmos-2251-debris",
        "lat": -41.633533538262405,
        "lon": -118.77158140266597,
        "alt_km": 744.4121765256614,
        "timestamp": "2025-12-19T08:58:49.731747+00:00",
        "meta_object_name": "COSMOS 2251 DEB",
        "meta_object_id": "1993-036WA",
        "meta_epoch": "2025-12-18T21:53:07.975104",
        "meta_mean_motion": 14.42039491,
        "meta_eccentricity": 0.00192561,
        "meta_inclination": 74.043,
        "meta_ra_of_asc_node": 256.8185,
        "meta_arg_of_pericenter": 308.8638,
        "meta_mean_anomaly": 128.5526,
        "meta_ephemeris_type": 0,
        "meta_classification_type": "U",
        "meta_norad_cat_id": 34588,
        "meta_element_set_no": 999,
        "meta_rev_at_epoch": 88039,
        "meta_bstar": 0.00033243126,
        "meta_mean_motion_dot": 1.067e-05,
        "meta_mean_motion_ddot": 0,
        "tle_line1": "1 34588U 93036WA  25352.91189786  .00001067  00000+0  33243-3 0  9996",
        "tle_line2": "2 34588  74.0430 256.8185 0019256 308.8638 128.5526 14.42039491880396"
      },
      "geometry": {
        "type": "Point",
        "coordinates": [
          -118.77158140266597,
          -41.633533538262405
        ]
      }
    }
  ]
}